{
"type": "FeatureCollection",
"name": "supermache abidjan final",
"crs": { "type": "name", "properties": { "name": "urn:ogc:def:crs:OGC:1.3:CRS84" } },
"features": [
{ "type": "Feature", "properties": { "id": "node/454168614", "addr:city": "cocody", "name": "Ofalé Market", "operator": "Ofele Market" }, "geometry": { "type": "Point", "coordinates": [ -3.9543201, 5.350873 ] } },
{ "type": "Feature", "properties": { "id": "node/768524277", "addr:city": "Cocody", "name": "Cash Center 2 Plateaux", "operator": "cash Center" }, "geometry": { "type": "Point", "coordinates": [ -3.9902166, 5.3642023 ] } },
{ "type": "Feature", "properties": { "id": "node/773848973", "addr:city": "cocody", "name": "ivoire Angre", "operator": "ivoire" }, "geometry": { "type": "Point", "coordinates": [ -3.9854255, 5.4035448 ] } },
{ "type": "Feature", "properties": { "id": "node/773849148", "addr:city": "cocody", "name": "Cash Ivoire-8e Tranche", "operator": "cash ivoire" }, "geometry": { "type": "Point", "coordinates": [ -3.9776642, 5.3997044 ] } },
{ "type": "Feature", "properties": { "id": "node/775786925", "addr:city": "yopougon", "name": "Supermarché CDCI", "operator": "Supermarches" }, "geometry": { "type": "Point", "coordinates": [ -3.9656346, 5.3577959 ] } },
{ "type": "Feature", "properties": { "id": "node/775786935", "addr:city": "Cocody", "name": "Cash Ivoire", "operator": "Cash ivoire" }, "geometry": { "type": "Point", "coordinates": [ -3.9590136, 5.3617255 ] } },
{ "type": "Feature", "properties": { "id": "node/1354693748", "addr:city": "bingerville", "name": "AB Center", "operator": "AB Center" }, "geometry": { "type": "Point", "coordinates": [ -3.9247906, 5.3579222 ] } },
{ "type": "Feature", "properties": { "id": "node/1987355300", "addr:city": "cocody", "name": "Chelsea Market", "operator": "Chelsea Market" }, "geometry": { "type": "Point", "coordinates": [ -3.9511557, 5.3291649 ] } },
{ "type": "Feature", "properties": { "id": "node/2381354982", "addr:city": "Yopougon", "name": "King Cash", "operator": "CDCI" }, "geometry": { "type": "Point", "coordinates": [ -4.0231626, 5.3672721 ] } },
{ "type": "Feature", "properties": { "id": "node/2382127907", "addr:city": "Abobo", "name": "Cash Ivoire", "operator": "Cash Ivoire" }, "geometry": { "type": "Point", "coordinates": [ -4.0161176, 5.3536435 ] } },
{ "type": "Feature", "properties": { "id": "node/2388907671", "addr:city": "Yopougon", "name": "Cash Ivoire", "operator": "Cash Ivoire" }, "geometry": { "type": "Point", "coordinates": [ -4.0172616, 5.3529965 ] } },
{ "type": "Feature", "properties": { "id": "node/2440400045", "addr:city": "cocody", "name": "Leader Price", "operator": "Leader price" }, "geometry": { "type": "Point", "coordinates": [ -3.987609, 5.2999184 ] } },
{ "type": "Feature", "properties": { "id": "node/2440425338", "addr:city": "cocody", "name": "Supermarché Prestige", "operator": "supermarches" }, "geometry": { "type": "Point", "coordinates": [ -3.9826244, 5.2905329 ] } },
{ "type": "Feature", "properties": { "id": "node/2440943168", "addr:city": "marcory", "name": "king cash", "operator": "CDCI" }, "geometry": { "type": "Point", "coordinates": [ -4.0148402, 5.4209226 ] } },
{ "type": "Feature", "properties": { "id": "node/2444995825", "addr:city": "Yopougon", "name": "King Cash", "operator": "King Cash" }, "geometry": { "type": "Point", "coordinates": [ -4.0725527, 5.3464945 ] } },
{ "type": "Feature", "properties": { "id": "node/2446130565", "addr:city": "cocody", "name": "Bonprix", "operator": "Bonprix" }, "geometry": { "type": "Point", "coordinates": [ -4.0619937, 5.3386523 ] } },
{ "type": "Feature", "properties": { "id": "node/2446130568", "addr:city": "marcory", "name": "King Cash", "operator": "CDCI" }, "geometry": { "type": "Point", "coordinates": [ -4.0638321, 5.3526316 ] } },
{ "type": "Feature", "properties": { "id": "node/2446130596", "addr:city": "macorry", "name": "Superette", "operator": "Superette" }, "geometry": { "type": "Point", "coordinates": [ -4.0591544, 5.3468215 ] } },
{ "type": "Feature", "properties": { "id": "node/2447227535", "addr:city": "macorry", "name": "Proxy Market", "operator": "Proxy Market" }, "geometry": { "type": "Point", "coordinates": [ -4.0171937, 5.3520435 ] } },
{ "type": "Feature", "properties": { "id": "node/2457703142", "addr:city": "cocody", "name": "MINI PRIX", "operator": "Mini prix" }, "geometry": { "type": "Point", "coordinates": [ -3.9746862, 5.3080519 ] } },
{ "type": "Feature", "properties": { "id": "node/2463107742", "addr:city": "Yopougon", "name": "L’Emmanuel", "operator": "L’Emmanuel" }, "geometry": { "type": "Point", "coordinates": [ -4.0797406, 5.3424218 ] } },
{ "type": "Feature", "properties": { "id": "node/2468882297", "addr:city": "Yopougon", "name": "Eden Superette", "operator": "superette" }, "geometry": { "type": "Point", "coordinates": [ -4.076664, 5.3272207 ] } },
{ "type": "Feature", "properties": { "id": "node/2468908531", "addr:city": "Yopougon", "name": "King Cash", "operator": "King Cash" }, "geometry": { "type": "Point", "coordinates": [ -4.0738839, 5.3529708 ] } },
{ "type": "Feature", "properties": { "id": "node/2469467860", "addr:city": "cocody", "name": "King Cash", "operator": "King Cash" }, "geometry": { "type": "Point", "coordinates": [ -3.9638111, 5.3030995 ] } },
{ "type": "Feature", "properties": { "id": "node/2485648811", "addr:city": "koumassi", "name": "King Cash", "operator": "King Cash" }, "geometry": { "type": "Point", "coordinates": [ -3.9574164, 5.3014998 ] } },
{ "type": "Feature", "properties": { "id": "node/2486264243", "addr:city": "Yopougon", "name": "King Cash", "operator": "King Cash" }, "geometry": { "type": "Point", "coordinates": [ -4.0773024, 5.3260388 ] } },
{ "type": "Feature", "properties": { "id": "node/2502549415", "addr:city": "abobo", "name": "Mini Prix", "operator": "Mini Prix" }, "geometry": { "type": "Point", "coordinates": [ -3.9762516, 5.3057314 ] } },
{ "type": "Feature", "properties": { "id": "node/2502552355", "addr:city": "koumassi", "name": "Rahisam", "operator": "Rahisam" }, "geometry": { "type": "Point", "coordinates": [ -3.9763094, 5.3051511 ] } },
{ "type": "Feature", "properties": { "id": "node/2502552702", "addr:city": "Marcory", "name": "nouvelle superette", "operator": "superette" }, "geometry": { "type": "Point", "coordinates": [ -3.9759624, 5.3033278 ] } },
{ "type": "Feature", "properties": { "id": "node/2513925147", "addr:city": "Cocody", "name": "Casino 2 plateaux", "operator": "Casino" }, "geometry": { "type": "Point", "coordinates": [ -3.9900586, 5.3580122 ] } },
{ "type": "Feature", "properties": { "id": "node/2555328761", "addr:city": "Biétry", "name": "American", "operator": "American" }, "geometry": { "type": "Point", "coordinates": [ -3.967218, 5.275858 ] } },
{ "type": "Feature", "properties": { "id": "node/2573061721", "addr:city": "cocody", "name": "Cash Ivoire", "operator": "Cash ivoire" }, "geometry": { "type": "Point", "coordinates": [ -4.0122114, 5.4349874 ] } },
{ "type": "Feature", "properties": { "id": "node/2575162007", "addr:city": "", "name": "King Cash", "operator": "King Cash" }, "geometry": { "type": "Point", "coordinates": [ -3.9603448, 5.3668977 ] } },
{ "type": "Feature", "properties": { "id": "node/2604138389", "addr:city": "Marcory", "name": "Mini prix", "operator": "Mini Prix" }, "geometry": { "type": "Point", "coordinates": [ -3.9772889, 5.3102652 ] } },
{ "type": "Feature", "properties": { "id": "node/2604140431", "addr:city": "abobo", "name": "Mini Prix", "operator": "Mini Prix" }, "geometry": { "type": "Point", "coordinates": [ -3.9723895, 5.3085865 ] } },
{ "type": "Feature", "properties": { "id": "node/2684196800", "addr:city": "treichville", "name": "Mabrok", "operator": "Mabrok" }, "geometry": { "type": "Point", "coordinates": [ -4.1052843, 5.3229561 ] } },
{ "type": "Feature", "properties": { "id": "node/2685468197", "addr:city": "cocody", "name": "Express-Market", "operator": null }, "geometry": { "type": "Point", "coordinates": [ -4.1043775, 5.3288291 ] } },
{ "type": "Feature", "properties": { "id": "node/2685468205", "addr:city": "", "name": "Supermarché Mansoura", "operator": "supermarches" }, "geometry": { "type": "Point", "coordinates": [ -4.1043174, 5.3289341 ] } },
{ "type": "Feature", "properties": { "id": null, "addr:city": "Yopougon", "name": "Supermarché Mafosa", "operator": "Supermarché" }, "geometry": { "type": "Point", "coordinates": [ -4.1093336, 5.323619 ] } },
{ "type": "Feature", "properties": { "id": "node/2759455859", "addr:city": "cocody", "name": "Supérette de pailler", "operator": "Supérette de pailler" }, "geometry": { "type": "Point", "coordinates": [ -4.0146867, 5.3760495 ] } },
{ "type": "Feature", "properties": { "id": "node/2761136576", "addr:city": "cocody", "name": "CDCI", "operator": "King Cash" }, "geometry": { "type": "Point", "coordinates": [ -3.9464411, 5.3109366 ] } },
{ "type": "Feature", "properties": { "id": "node/2763917030", "addr:city": "cocody", "name": "Cash Ivoire", "operator": "Cash Ivoire" }, "geometry": { "type": "Point", "coordinates": [ -3.9465413, 5.3030795 ] } },
{ "type": "Feature", "properties": { "id": "node/2796453925", "addr:city": "macorry", "name": "Super U", "operator": "Cash Ivoire" }, "geometry": { "type": "Point", "coordinates": [ -4.0736438, 5.3319195 ] } },
{ "type": "Feature", "properties": { "id": "node/2844717526", "addr:city": "yopougon", "name": "Mini Prix", "operator": "Mini Prix" }, "geometry": { "type": "Point", "coordinates": [ -3.9773011, 5.3103559 ] } },
{ "type": "Feature", "properties": { "id": "node/2898893511", "addr:city": "Cocody", "name": "Supermarché Kangaroo", "operator": "Supermarché" }, "geometry": { "type": "Point", "coordinates": [ -3.9978806, 5.3695511 ] } },
{ "type": "Feature", "properties": { "id": "node/2907851837", "addr:city": "treichville", "name": "Bonprix", "operator": "Bonprix" }, "geometry": { "type": "Point", "coordinates": [ -3.9014469, 5.240273 ] } },
{ "type": "Feature", "properties": { "id": "node/2947844618", "addr:city": "Yopougon", "name": "Cash Ivoire", "operator": "Cash Ivoire" }, "geometry": { "type": "Point", "coordinates": [ -3.9638835, 5.2596113 ] } },
{ "type": "Feature", "properties": { "id": "node/2960508953", "addr:city": "cocody", "name": "King Cash", "operator": "King Cash" }, "geometry": { "type": "Point", "coordinates": [ -3.887727, 5.3572934 ] } },
{ "type": "Feature", "properties": { "id": "node/2984186308", "addr:city": "cocody", "name": "Supermarché El vouze", "operator": "Supermarché" }, "geometry": { "type": "Point", "coordinates": [ -4.1033872, 5.3216167 ] } },
{ "type": "Feature", "properties": { "id": "node/2991180857", "addr:city": "plateau", "name": "super U ", "operator": "super U " }, "geometry": { "type": "Point", "coordinates": [ -4.0193134, 5.3207723 ] } },
{ "type": "Feature", "properties": { "id": "node/3017000450", "addr:city": "cocody", "name": "Bonprix", "operator": "Prosuma" }, "geometry": { "type": "Point", "coordinates": [ -4.0217942, 5.3524976 ] } },
{ "type": "Feature", "properties": { "id": "node/3139543639", "addr:city": "Yopougon", "name": "Cash Ivoire", "operator": "Cash Ivoire" }, "geometry": { "type": "Point", "coordinates": [ -3.9646006, 5.3807532 ] } },
{ "type": "Feature", "properties": { "id": "node/3141736220", "addr:city": null, "name": null, "operator": null }, "geometry": { "type": "Point", "coordinates": [ -4.0088987, 5.4289554 ] } },
{ "type": "Feature", "properties": { "id": "node/3156009089", "addr:city": "Adjamé", "name": "ADJ Rue Barre", "operator": "ADJ Rue Barre" }, "geometry": { "type": "Point", "coordinates": [ -4.0262656, 5.3465925 ] } },
{ "type": "Feature", "properties": { "id": "node/3171962272", "addr:city": "treichville", "name": "Bon Prix", "operator": "Prosuma" }, "geometry": { "type": "Point", "coordinates": [ -4.0198193, 5.4283438 ] } },
{ "type": "Feature", "properties": { "id": "node/3178546317", "addr:city": "cocody", "name": "Ivoire shop", "operator": "Ivoire shop" }, "geometry": { "type": "Point", "coordinates": [ -3.9909233, 5.4050927 ] } },
{ "type": "Feature", "properties": { "id": "node/3194527906", "addr:city": null, "name": null, "operator": null }, "geometry": { "type": "Point", "coordinates": [ -4.0062767, 5.3933461 ] } },
{ "type": "Feature", "properties": { "id": "node/3281997581", "addr:city": "cocody", "name": "CDCI", "operator": "Compagnie de Distribution de Côte d'Ivoire (CDCI)" }, "geometry": { "type": "Point", "coordinates": [ -4.0061805, 5.4135135 ] } },
{ "type": "Feature", "properties": { "id": "node/3282121163", "addr:city": "plateau", "name": "Akwaba Center", "operator": "Akwaba Center" }, "geometry": { "type": "Point", "coordinates": [ -4.015746, 5.4124359 ] } },
{ "type": "Feature", "properties": { "id": "node/3288818763", "addr:city": null, "name": "Jour de marché", "operator": "Jour de marché" }, "geometry": { "type": "Point", "coordinates": [ -4.0177914, 5.3229214 ] } },
{ "type": "Feature", "properties": { "id": "node/3301100662", "addr:city": null, "name": "SuperMarche Mi-Gros", "operator": "Supermarché" }, "geometry": { "type": "Point", "coordinates": [ -3.9779451, 5.2863304 ] } },
{ "type": "Feature", "properties": { "id": "node/3321109973", "addr:city": null, "name": "HyperHayat", "operator": "HyperHayat" }, "geometry": { "type": "Point", "coordinates": [ -3.9872221, 5.2983417 ] } },
{ "type": "Feature", "properties": { "id": "node/3326668606", "addr:city": null, "name": "Master Food", "operator": "Master Food" }, "geometry": { "type": "Point", "coordinates": [ -3.979833, 5.2938191 ] } },
{ "type": "Feature", "properties": { "id": "node/3345551526", "addr:city": "cocody", "name": "CDCI", "operator": "Compagnie de Distribution de Côte d'Ivoire (CDCI)" }, "geometry": { "type": "Point", "coordinates": [ -3.9836425, 5.4055444 ] } },
{ "type": "Feature", "properties": { "id": "node/3366916893", "addr:city": null, "name": "Hyper U", "operator": "Hyper U" }, "geometry": { "type": "Point", "coordinates": [ -3.9995294, 5.3731946 ] } },
{ "type": "Feature", "properties": { "id": "node/3393024195", "addr:city": null, "name": "Casino Supermarché", "operator": "Casino" }, "geometry": { "type": "Point", "coordinates": [ -3.9662414, 5.3559419 ] } },
{ "type": "Feature", "properties": { "id": "node/3393271468", "addr:city": "Yopougon", "name": "Cash Center La Djibi", "operator": "Cash center" }, "geometry": { "type": "Point", "coordinates": [ -3.9753887, 5.3861016 ] } },
{ "type": "Feature", "properties": { "id": "node/3396921315", "addr:city": "cocody", "name": "Cash Ivoire U", "operator": "Cash Ivoire U" }, "geometry": { "type": "Point", "coordinates": [ -3.968781, 5.2883944 ] } },
{ "type": "Feature", "properties": { "id": "node/3396923646", "addr:city": "Yopougon", "name": "Cash Ivoire", "operator": "Cash ivoire " }, "geometry": { "type": "Point", "coordinates": [ -3.9691115, 5.2888118 ] } },
{ "type": "Feature", "properties": { "id": "node/3400733935", "addr:city": "Marcory", "name": "Cash Center Zone 4", "operator": "Société Prosuma (Société Ivoirienne de Promotion de Supermarchés)" }, "geometry": { "type": "Point", "coordinates": [ -3.9851585, 5.2870222 ] } },
{ "type": "Feature", "properties": { "id": "node/3402317696", "addr:city": "Marcory", "name": "Diplomatique Internationale Free Shop (DIFS)", "operator": "Diplomatique Internationale Free Shop (DIFS)" }, "geometry": { "type": "Point", "coordinates": [ -3.9816799, 5.2828854 ] } },
{ "type": "Feature", "properties": { "id": "node/3442982782", "addr:city": "Marcory", "name": "Casino", "operator": "Casino" }, "geometry": { "type": "Point", "coordinates": [ -3.9829465, 5.2949542 ] } },
{ "type": "Feature", "properties": { "id": "node/3575322595", "addr:city": "abobo", "name": "Superette du Dokui", "operator": "Superette du Dokui" }, "geometry": { "type": "Point", "coordinates": [ -4.0096509, 5.399394 ] } },
{ "type": "Feature", "properties": { "id": "node/3682498051", "addr:city": null, "name": "Cash Saviely", "operator": "Cash Saviely" }, "geometry": { "type": "Point", "coordinates": [ -4.1055546, 5.3271257 ] } },
{ "type": "Feature", "properties": { "id": "node/3703113625", "addr:city": null, "name": "kingcash", "operator": "kingcash" }, "geometry": { "type": "Point", "coordinates": [ -3.9709537, 5.2977262 ] } },
{ "type": "Feature", "properties": { "id": "node/3710442834", "addr:city": null, "name": null, "operator": null }, "geometry": { "type": "Point", "coordinates": [ -3.9220326, 5.3442112 ] } },
{ "type": "Feature", "properties": { "id": "node/3767289532", "addr:city": null, "name": "Super marché de l'Université", "operator": "Supermarché" }, "geometry": { "type": "Point", "coordinates": [ -3.9889271, 5.3416593 ] } },
{ "type": "Feature", "properties": { "id": "node/3798489592", "addr:city": "cocody", "name": "King Cash", "operator": "King Cash" }, "geometry": { "type": "Point", "coordinates": [ -4.0144695, 5.4271479 ] } },
{ "type": "Feature", "properties": { "id": "node/3810933855", "addr:city": null, "name": "Supermarché Guesch", "operator": "Supermarché" }, "geometry": { "type": "Point", "coordinates": [ -4.0893118, 5.3394075 ] } },
{ "type": "Feature", "properties": { "id": "node/3813674270", "addr:city": "abobo", "name": "Super Marché Bonprix Niangon", "operator": "Supermarché" }, "geometry": { "type": "Point", "coordinates": [ -4.0894022, 5.3356615 ] } },
{ "type": "Feature", "properties": { "id": "node/3894153983", "addr:city": "Marcory", "name": "Supermarché Citydia", "operator": "Supermarché" }, "geometry": { "type": "Point", "coordinates": [ -3.9764231, 5.3055586 ] } },
{ "type": "Feature", "properties": { "id": "node/3898408759", "addr:city": null, "name": "Hypermarché Carrefour", "operator": "Carrefour Côte d'Ivoire" }, "geometry": { "type": "Point", "coordinates": [ -3.9915405, 5.3022613 ] } },
{ "type": "Feature", "properties": { "id": "node/3930583808", "addr:city": null, "name": "Super Marché Prix Abordable du Koweit", "operator": "Supermarché" }, "geometry": { "type": "Point", "coordinates": [ -4.0542247, 5.322049 ] } },
{ "type": "Feature", "properties": { "id": "node/3931437124", "addr:city": null, "name": "Ivoire Boutique Superette", "operator": "Ivoire" }, "geometry": { "type": "Point", "coordinates": [ -4.0583655, 5.323774 ] } },
{ "type": "Feature", "properties": { "id": "node/3950192780", "addr:city": "abobo", "name": "Le Bon Prix", "operator": "Prosuma" }, "geometry": { "type": "Point", "coordinates": [ -4.0702979, 5.3557153 ] } },
{ "type": "Feature", "properties": { "id": "node/3958258505", "addr:city": "Yopougon", "name": "King Cash", "operator": "King Cash" }, "geometry": { "type": "Point", "coordinates": [ -4.1057938, 5.3255078 ] } },
{ "type": "Feature", "properties": { "id": "node/3993667005", "addr:city": null, "name": "Carrefour Market", "operator": "Carrefour" }, "geometry": { "type": "Point", "coordinates": [ -3.9761273, 5.280899 ] } },
{ "type": "Feature", "properties": { "id": "node/4002514239", "addr:city": "cocody", "name": "King Cash", "operator": "King Cash" }, "geometry": { "type": "Point", "coordinates": [ -4.0799378, 5.3424851 ] } },
{ "type": "Feature", "properties": { "id": "node/4002541742", "addr:city": "Yopougon", "name": "King Cash", "operator": "King Cash" }, "geometry": { "type": "Point", "coordinates": [ -4.0738361, 5.3398417 ] } },
{ "type": "Feature", "properties": { "id": "node/4002541743", "addr:city": "Yopougon", "name": "Cash Ivoire", "operator": null }, "geometry": { "type": "Point", "coordinates": [ -4.0737891, 5.3392568 ] } },
{ "type": "Feature", "properties": { "id": "node/4013672696", "addr:city": null, "name": "Magasin CDCI Gros", "operator": "Compagnie de Distribution de Côte d'Ivoire (CDCI)" }, "geometry": { "type": "Point", "coordinates": [ -4.014749, 5.3065279 ] } },
{ "type": "Feature", "properties": { "id": "node/4107240793", "addr:city": null, "name": "La Maisonnée", "operator": "La Maisonnée" }, "geometry": { "type": "Point", "coordinates": [ -3.9757283, 5.2728479 ] } },
{ "type": "Feature", "properties": { "id": "node/4107248790", "addr:city": "cocody", "name": "Supermarché Bon Prix", "operator": "Supermarché" }, "geometry": { "type": "Point", "coordinates": [ -3.977861, 5.2743389 ] } },
{ "type": "Feature", "properties": { "id": "node/4185710090", "addr:city": null, "name": "marcé diekona", "operator": "marcé diekona" }, "geometry": { "type": "Point", "coordinates": [ -4.0197946, 5.3229206 ] } },
{ "type": "Feature", "properties": { "id": "node/4284169890", "addr:city": null, "name": "So coco", "operator": "So coco" }, "geometry": { "type": "Point", "coordinates": [ -3.9990144, 5.3728026 ] } },
{ "type": "Feature", "properties": { "id": "node/4314450240", "addr:city": "cocody", "name": "King Cash", "operator": "King Cash" }, "geometry": { "type": "Point", "coordinates": [ -4.0615056, 5.3189881 ] } },
{ "type": "Feature", "properties": { "id": "node/4353166393", "addr:city": "koumassi", "name": "King Cash", "operator": "King Cash" }, "geometry": { "type": "Point", "coordinates": [ -4.0113877, 5.3035445 ] } },
{ "type": "Feature", "properties": { "id": "node/4362577089", "addr:city": "Treichville", "name": "Cash Ivoire", "operator": "Cash Ivoire" }, "geometry": { "type": "Point", "coordinates": [ -4.0553402, 5.3318135 ] } },
{ "type": "Feature", "properties": { "id": "node/4381307101", "addr:city": null, "name": "Indian souk", "operator": "Indian souk" }, "geometry": { "type": "Point", "coordinates": [ -3.9930694, 5.3081325 ] } },
{ "type": "Feature", "properties": { "id": "node/4384525613", "addr:city": null, "name": "Socoprix", "operator": "Socoprix" }, "geometry": { "type": "Point", "coordinates": [ -3.999758, 5.2969766 ] } },
{ "type": "Feature", "properties": { "id": "node/4404072086", "addr:city": "Yopougon", "name": "Cash Express", "operator": "Cash Express" }, "geometry": { "type": "Point", "coordinates": [ -3.9836611, 5.4038283 ] } },
{ "type": "Feature", "properties": { "id": "node/4411568052", "addr:city": null, "name": "Supermarché", "operator": "Supermarché" }, "geometry": { "type": "Point", "coordinates": [ -3.9809094, 5.4132153 ] } },
{ "type": "Feature", "properties": { "id": "node/4411568299", "addr:city": null, "name": "CDI", "operator": "CDI" }, "geometry": { "type": "Point", "coordinates": [ -4.0875542, 5.3469103 ] } },
{ "type": "Feature", "properties": { "id": "node/4411568332", "addr:city": null, "name": "Theo Supermarché", "operator": "Supermarché" }, "geometry": { "type": "Point", "coordinates": [ -4.0128607, 5.3189105 ] } },
{ "type": "Feature", "properties": { "id": "node/4413335398", "addr:city": null, "name": "Jour de marché", "operator": "Jour de marché" }, "geometry": { "type": "Point", "coordinates": [ -3.9911485, 5.3987725 ] } },
{ "type": "Feature", "properties": { "id": "node/4449517567", "addr:city": null, "name": "Club Sococe", "operator": "Club Sococe" }, "geometry": { "type": "Point", "coordinates": [ -3.9993562, 5.2971197 ] } },
{ "type": "Feature", "properties": { "id": "node/4455479590", "addr:city": null, "name": "Socofrais", "operator": "Socofrais" }, "geometry": { "type": "Point", "coordinates": [ -3.9997881, 5.2977278 ] } },
{ "type": "Feature", "properties": { "id": "node/4485222194", "addr:city": "macorry", "name": "Bonprix", "operator": "Prosuma" }, "geometry": { "type": "Point", "coordinates": [ -4.0214734, 5.3557254 ] } },
{ "type": "Feature", "properties": { "id": "node/4485222198", "addr:city": null, "name": "King Cash Avocatier", "operator": "King cash" }, "geometry": { "type": "Point", "coordinates": [ -4.0239172, 5.4297649 ] } },
{ "type": "Feature", "properties": { "id": "node/4505713791", "addr:city": null, "name": "Sococé", "operator": "Sococé" }, "geometry": { "type": "Point", "coordinates": [ -3.9805508, 5.4128865 ] } },
{ "type": "Feature", "properties": { "id": "node/4505741789", "addr:city": null, "name": "Citydia", "operator": "Citydia" }, "geometry": { "type": "Point", "coordinates": [ -3.9913645, 5.401109 ] } },
{ "type": "Feature", "properties": { "id": "node/4745563523", "addr:city": null, "name": "Chez Abou", "operator": "Chez Abou" }, "geometry": { "type": "Point", "coordinates": [ -4.026296, 5.3478029 ] } },
{ "type": "Feature", "properties": { "id": "node/4761998742", "addr:city": null, "name": "Ganamet freres", "operator": "Ganamet freres" }, "geometry": { "type": "Point", "coordinates": [ -3.9882014, 5.3016957 ] } },
{ "type": "Feature", "properties": { "id": "node/4774250721", "addr:city": null, "name": "Casino 01", "operator": "Casino" }, "geometry": { "type": "Point", "coordinates": [ -3.9774696, 5.2739797 ] } },
{ "type": "Feature", "properties": { "id": "node/4786526421", "addr:city": "Abidjan", "name": "Casino Mandarine", "operator": "Casino" }, "geometry": { "type": "Point", "coordinates": [ -3.9774775, 5.2739058 ] } },
{ "type": "Feature", "properties": { "id": "node/4791708397", "addr:city": "Cocody", "name": "L'Abidjanaise", "operator": "L'Abidjanaise" }, "geometry": { "type": "Point", "coordinates": [ -3.9766127, 5.351125 ] } },
{ "type": "Feature", "properties": { "id": "node/4791709295", "addr:city": "Cocody", "name": "Paradis des prix", "operator": "Paradis des prix" }, "geometry": { "type": "Point", "coordinates": [ -3.9762559, 5.3498698 ] } },
{ "type": "Feature", "properties": { "id": "node/4791767082", "addr:city": null, "name": null, "operator": null }, "geometry": { "type": "Point", "coordinates": [ -4.0066333, 5.3992828 ] } },
{ "type": "Feature", "properties": { "id": "node/4791795461", "addr:city": "cocody", "name": "King Cash", "operator": "King Cash" }, "geometry": { "type": "Point", "coordinates": [ -4.006306, 5.4011155 ] } },
{ "type": "Feature", "properties": { "id": "node/4801940458", "addr:city": null, "name": "Quick Market Rosiers", "operator": "Quick Market Rosiers" }, "geometry": { "type": "Point", "coordinates": [ -3.961665, 5.373855 ] } },
{ "type": "Feature", "properties": { "id": "node/4836385428", "addr:city": "koumassi", "name": "Bon prix", "operator": "Prosuma" }, "geometry": { "type": "Point", "coordinates": [ -4.0251698, 5.3531693 ] } },
{ "type": "Feature", "properties": { "id": "node/4971199523", "addr:city": null, "name": "King cash", "operator": "King Cash" }, "geometry": { "type": "Point", "coordinates": [ -4.0603166, 5.3288716 ] } },
{ "type": "Feature", "properties": { "id": "node/5025237821", "addr:city": null, "name": null, "operator": null }, "geometry": { "type": "Point", "coordinates": [ -3.9996117, 5.3441809 ] } },
{ "type": "Feature", "properties": { "id": "node/5075743630", "addr:city": null, "name": "Grand marché d’Avocatier", "operator": "Grand marché d’Avocatier" }, "geometry": { "type": "Point", "coordinates": [ -4.0249134, 5.440527 ] } },
{ "type": "Feature", "properties": { "id": "node/5111164522", "addr:city": null, "name": "Carrefour", "operator": "Carrefour" }, "geometry": { "type": "Point", "coordinates": [ -3.9338415, 5.3728391 ] } },
{ "type": "Feature", "properties": { "id": "node/5203033003", "addr:city": null, "name": "Supeco", "operator": "Supeco" }, "geometry": { "type": "Point", "coordinates": [ -3.9875408, 5.2949628 ] } },
{ "type": "Feature", "properties": { "id": "node/5255010167", "addr:city": null, "name": "Food Basics", "operator": "Food Basics" }, "geometry": { "type": "Point", "coordinates": [ -3.986435, 5.3881932 ] } },
{ "type": "Feature", "properties": { "id": "node/5255033710", "addr:city": null, "name": "Ted", "operator": "Ted" }, "geometry": { "type": "Point", "coordinates": [ -3.9876706, 5.3894074 ] } },
{ "type": "Feature", "properties": { "id": "node/5399979465", "addr:city": "cocody", "name": "CDCI", "operator": "Compagnie de Distribution de Côte d'Ivoire (CDCI)" }, "geometry": { "type": "Point", "coordinates": [ -4.0196389, 5.3026674 ] } },
{ "type": "Feature", "properties": { "id": "node/5502614222", "addr:city": null, "name": "Casino", "operator": "Casino" }, "geometry": { "type": "Point", "coordinates": [ -3.9718132, 5.2876743 ] } },
{ "type": "Feature", "properties": { "id": "node/5515043895", "addr:city": null, "name": "Supermarché Carrefour Faya", "operator": "Supermarché" }, "geometry": { "type": "Point", "coordinates": [ -3.9383225, 5.3699075 ] } },
{ "type": "Feature", "properties": { "id": "node/5599203447", "addr:city": "Macorry", "name": "Ivoire Center Abobo", "operator": "Ivoire center" }, "geometry": { "type": "Point", "coordinates": [ -4.0193773, 5.4255142 ] } },
{ "type": "Feature", "properties": { "id": "node/5599203706", "addr:city": null, "name": "Supermarché Interprix", "operator": "Supermarché" }, "geometry": { "type": "Point", "coordinates": [ -4.011182, 5.3445037 ] } },
{ "type": "Feature", "properties": { "id": "node/5599203708", "addr:city": "Yoppougon", "name": "Bonprix", "operator": "Prosuma" }, "geometry": { "type": "Point", "coordinates": [ -4.010074, 5.416883 ] } },
{ "type": "Feature", "properties": { "id": "node/5620097769", "addr:city": "", "name": "King Cash", "operator": "King Cash" }, "geometry": { "type": "Point", "coordinates": [ -4.0841646, 5.3355626 ] } },
{ "type": "Feature", "properties": { "id": "node/5661627538", "addr:city": null, "name": "International Diplomatic Free Shop", "operator": "International Diplomatic Free Shop" }, "geometry": { "type": "Point", "coordinates": [ -3.9943665, 5.3769815 ] } },
{ "type": "Feature", "properties": { "id": "node/5924043141", "addr:city": null, "name": null, "operator": null }, "geometry": { "type": "Point", "coordinates": [ -4.0849614, 5.3589398 ] } },
{ "type": "Feature", "properties": { "id": "node/5924214396", "addr:city": null, "name": "Supermarché", "operator": "Supermarché" }, "geometry": { "type": "Point", "coordinates": [ -4.0708094, 5.3511513 ] } },
{ "type": "Feature", "properties": { "id": "node/5924348116", "addr:city": "macorry", "name": "Superette", "operator": "Superette" }, "geometry": { "type": "Point", "coordinates": [ -4.079939, 5.3617371 ] } },
{ "type": "Feature", "properties": { "id": "node/5924466562", "addr:city": "", "name": "King Cash", "operator": "King Cash" }, "geometry": { "type": "Point", "coordinates": [ -4.0670684, 5.3427464 ] } },
{ "type": "Feature", "properties": { "id": "node/5924510433", "addr:city": "", "name": "King Cash", "operator": "King Cash" }, "geometry": { "type": "Point", "coordinates": [ -4.0777094, 5.347994 ] } },
{ "type": "Feature", "properties": { "id": "node/5924535318", "addr:city": null, "name": null, "operator": null }, "geometry": { "type": "Point", "coordinates": [ -4.0761799, 5.3479573 ] } },
{ "type": "Feature", "properties": { "id": "node/5924557569", "addr:city": null, "name": "Supermarché CDCI", "operator": "Supermarché" }, "geometry": { "type": "Point", "coordinates": [ -4.079257, 5.3521661 ] } },
{ "type": "Feature", "properties": { "id": "node/5924562693", "addr:city": null, "name": "Supermarché", "operator": "Supermarché" }, "geometry": { "type": "Point", "coordinates": [ -4.0800738, 5.3554034 ] } },
{ "type": "Feature", "properties": { "id": "node/5924570319", "addr:city": null, "name": "Supermarché bon pannier", "operator": "Supermarché" }, "geometry": { "type": "Point", "coordinates": [ -4.067409, 5.351863 ] } },
{ "type": "Feature", "properties": { "id": "node/5926235577", "addr:city": null, "name": "Hypermarché Cash Ivoire", "operator": "Cash ivoire" }, "geometry": { "type": "Point", "coordinates": [ -4.083792, 5.3468758 ] } },
{ "type": "Feature", "properties": { "id": "node/5926282073", "addr:city": null, "name": "Eco Prix", "operator": "Eco Prix" }, "geometry": { "type": "Point", "coordinates": [ -4.0729455, 5.340884 ] } },
{ "type": "Feature", "properties": { "id": "node/5927013840", "addr:city": null, "name": "Magasin Vente de Riz", "operator": "Supermarché" }, "geometry": { "type": "Point", "coordinates": [ -4.0678838, 5.3521846 ] } },
{ "type": "Feature", "properties": { "id": "node/5928600075", "addr:city": null, "name": "Supermarché de la Station", "operator": "Supermarché" }, "geometry": { "type": "Point", "coordinates": [ -4.0636837, 5.3482826 ] } },
{ "type": "Feature", "properties": { "id": "node/5928726280", "addr:city": "cocody", "name": "Supermarché Bon prix", "operator": "Supermarché" }, "geometry": { "type": "Point", "coordinates": [ -4.0942727, 5.3786136 ] } },
{ "type": "Feature", "properties": { "id": "node/5928841982", "addr:city": null, "name": "Supermarché la paix", "operator": "Supermarché" }, "geometry": { "type": "Point", "coordinates": [ -4.0964359, 5.379358 ] } },
{ "type": "Feature", "properties": { "id": "node/5931189989", "addr:city": null, "name": "Supermarché", "operator": "Supermarché" }, "geometry": { "type": "Point", "coordinates": [ -4.0971011, 5.3862329 ] } },
{ "type": "Feature", "properties": { "id": "node/5934038685", "addr:city": null, "name": "Supermarché Mansor", "operator": "Supermarché" }, "geometry": { "type": "Point", "coordinates": [ -4.0967873, 5.337006 ] } },
{ "type": "Feature", "properties": { "id": "node/5934409483", "addr:city": null, "name": "Vente de gros et détails", "operator": "Vente de gros et détails" }, "geometry": { "type": "Point", "coordinates": [ -4.0968736, 5.3437706 ] } },
{ "type": "Feature", "properties": { "id": "node/5936634520", "addr:city": null, "name": "La Rochela", "operator": "La Rochela" }, "geometry": { "type": "Point", "coordinates": [ -4.0557783, 5.3278225 ] } },
{ "type": "Feature", "properties": { "id": "node/5936678071", "addr:city": null, "name": null, "operator": null }, "geometry": { "type": "Point", "coordinates": [ -4.0534414, 5.3330249 ] } },
{ "type": "Feature", "properties": { "id": "node/5936816510", "addr:city": null, "name": "Moins Cher", "operator": null }, "geometry": { "type": "Point", "coordinates": [ -4.0945775, 5.3460719 ] } },
{ "type": "Feature", "properties": { "id": "node/5937206533", "addr:city": "cocody", "name": "CDCI", "operator": "Compagnie de Distribution de Côte d'Ivoire (CDCI)" }, "geometry": { "type": "Point", "coordinates": [ -4.0954267, 5.3458242 ] } },
{ "type": "Feature", "properties": { "id": "node/5937290812", "addr:city": null, "name": "Supermarché très moins cher", "operator": "Supermarché" }, "geometry": { "type": "Point", "coordinates": [ -4.0989015, 5.3534559 ] } },
{ "type": "Feature", "properties": { "id": "node/5938872038", "addr:city": null, "name": "Supermarché Nasr", "operator": "Supermarché" }, "geometry": { "type": "Point", "coordinates": [ -4.095413, 5.3504586 ] } },
{ "type": "Feature", "properties": { "id": "node/5939011194", "addr:city": null, "name": "Supermarché NATIONAL", "operator": "Supermarché" }, "geometry": { "type": "Point", "coordinates": [ -4.0953939, 5.3506272 ] } },
{ "type": "Feature", "properties": { "id": "node/5939248305", "addr:city": null, "name": "Super marché NATIONAL", "operator": "Supermarché" }, "geometry": { "type": "Point", "coordinates": [ -4.0953959, 5.3506299 ] } },
{ "type": "Feature", "properties": { "id": "node/5952589282", "addr:city": "cocody", "name": "CDCI", "operator": "Compagnie de Distribution de Côte d'Ivoire (CDCI)" }, "geometry": { "type": "Point", "coordinates": [ -4.0696366, 5.3246965 ] } },
{ "type": "Feature", "properties": { "id": "node/5960264099", "addr:city": null, "name": "Citydia", "operator": null }, "geometry": { "type": "Point", "coordinates": [ -3.9515691, 5.2978541 ] } },
{ "type": "Feature", "properties": { "id": "node/5961227688", "addr:city": "cocody", "name": "Cash Ivoire", "operator": "Cash Ivoire" }, "geometry": { "type": "Point", "coordinates": [ -3.968686, 5.3010319 ] } },
{ "type": "Feature", "properties": { "id": "node/5964319473", "addr:city": null, "name": null, "operator": null }, "geometry": { "type": "Point", "coordinates": [ -4.0534917, 5.4439414 ] } },
{ "type": "Feature", "properties": { "id": "node/5965706467", "addr:city": null, "name": "Mini-Market", "operator": "Mini-Market" }, "geometry": { "type": "Point", "coordinates": [ -3.9547211, 5.3000612 ] } },
{ "type": "Feature", "properties": { "id": "node/5970172783", "addr:city": null, "name": "Super Marché", "operator": "Super Marché" }, "geometry": { "type": "Point", "coordinates": [ -4.0543058, 5.4556264 ] } },
{ "type": "Feature", "properties": { "id": "node/5971962248", "addr:city": "", "name": "King Cash", "operator": "King Cash" }, "geometry": { "type": "Point", "coordinates": [ -3.9563978, 5.2937257 ] } },
{ "type": "Feature", "properties": { "id": "node/5991197964", "addr:city": null, "name": "Casino Mandarine", "operator": "Casino" }, "geometry": { "type": "Point", "coordinates": [ -4.0107739, 5.3447265 ] } },
{ "type": "Feature", "properties": { "id": "node/6040221044", "addr:city": null, "name": "Carrefour Market", "operator": "Carrefour " }, "geometry": { "type": "Point", "coordinates": [ -4.0748241, 5.3491391 ] } },
{ "type": "Feature", "properties": { "id": "node/6166314220", "addr:city": "cocody", "name": "CDCI", "operator": "Compagnie de Distribution de Côte d'Ivoire (CDCI)" }, "geometry": { "type": "Point", "coordinates": [ -3.9540815, 5.3692686 ] } },
{ "type": "Feature", "properties": { "id": "node/6200674931", "addr:city": "Abobo", "name": "King soleil market", "operator": "King soleil market" }, "geometry": { "type": "Point", "coordinates": [ -3.9635862, 5.3662048 ] } },
{ "type": "Feature", "properties": { "id": "node/6277979699", "addr:city": null, "name": "Djehf", "operator": "Djehf" }, "geometry": { "type": "Point", "coordinates": [ -4.0130193, 5.3046223 ] } },
{ "type": "Feature", "properties": { "id": "node/6291551600", "addr:city": "abobo", "name": "Bon Prix", "operator": "Prosuma" }, "geometry": { "type": "Point", "coordinates": [ -4.1096144, 5.323906 ] } },
{ "type": "Feature", "properties": { "id": "node/6435858359", "addr:city": null, "name": "Ata market", "operator": "Ata market" }, "geometry": { "type": "Point", "coordinates": [ -4.10698, 5.3309511 ] } },
{ "type": "Feature", "properties": { "id": "node/6440287909", "addr:city": null, "name": "Super U", "operator": "Super U" }, "geometry": { "type": "Point", "coordinates": [ -3.9826955, 5.2908266 ] } },
{ "type": "Feature", "properties": { "id": "node/6466587587", "addr:city": "", "name": "King Cash", "operator": "King Cash" }, "geometry": { "type": "Point", "coordinates": [ -3.9435086, 5.3642224 ] } },
{ "type": "Feature", "properties": { "id": "node/6478631794", "addr:city": null, "name": "Cash express", "operator": "Cash express" }, "geometry": { "type": "Point", "coordinates": [ -3.9454318, 5.3465042 ] } },
{ "type": "Feature", "properties": { "id": "node/6482145892", "addr:city": "koumassi", "name": "Cash ivoire", "operator": "Cash ivoire" }, "geometry": { "type": "Point", "coordinates": [ -4.0911122, 5.3468375 ] } },
{ "type": "Feature", "properties": { "id": "node/6661673654", "addr:city": null, "name": "Free Market", "operator": "Free Market" }, "geometry": { "type": "Point", "coordinates": [ -3.89244, 5.2426605 ] } },
{ "type": "Feature", "properties": { "id": "node/6881375079", "addr:city": null, "name": "Socoprix", "operator": "Socoprix" }, "geometry": { "type": "Point", "coordinates": [ -3.9563477, 5.3624254 ] } },
{ "type": "Feature", "properties": { "id": "node/6990020133", "addr:city": null, "name": "Supermarché Mon prix", "operator": "Supermarché" }, "geometry": { "type": "Point", "coordinates": [ -3.9290682, 5.3718018 ] } },
{ "type": "Feature", "properties": { "id": "node/7175317075", "addr:city": null, "name": "Supeco Niangon", "operator": "Supeco Niangon" }, "geometry": { "type": "Point", "coordinates": [ -4.0876862, 5.3215227 ] } },
{ "type": "Feature", "properties": { "id": "node/7353221072", "addr:city": null, "name": "Chez Attib's", "operator": "Chez Attib's" }, "geometry": { "type": "Point", "coordinates": [ -4.0025067, 5.3345916 ] } },
{ "type": "Feature", "properties": { "id": "node/7635737751", "addr:city": null, "name": "SUPER MACHET", "operator": "SUPER MACHET" }, "geometry": { "type": "Point", "coordinates": [ -3.9578971, 5.3628173 ] } },
{ "type": "Feature", "properties": { "id": "node/7770112185", "addr:city": null, "name": "ATIPIQ MOBILIER", "operator": "ATIPIQ MOBILIER" }, "geometry": { "type": "Point", "coordinates": [ -4.0009753, 5.3641624 ] } },
{ "type": "Feature", "properties": { "id": "node/7779479886", "addr:city": null, "name": "abobote marché", "operator": "abobote marché" }, "geometry": { "type": "Point", "coordinates": [ -4.0009891, 5.41056 ] } },
{ "type": "Feature", "properties": { "id": "node/8100744174", "addr:city": null, "name": "Socofrais", "operator": "Socofrais" }, "geometry": { "type": "Point", "coordinates": [ -4.0739674, 5.347971 ] } },
{ "type": "Feature", "properties": { "id": "node/8110854204", "addr:city": null, "name": "Sococé", "operator": "Sococé" }, "geometry": { "type": "Point", "coordinates": [ -4.0883698, 5.3354275 ] } },
{ "type": "Feature", "properties": { "id": "node/8299376295", "addr:city": null, "name": "Ivoirmarket", "operator": "Ivoirmarket" }, "geometry": { "type": "Point", "coordinates": [ -4.0740986, 5.3300577 ] } },
{ "type": "Feature", "properties": { "id": "node/8478437832", "addr:city": null, "name": "Supeco Terminus 47", "operator": "Supeco Terminus 47" }, "geometry": { "type": "Point", "coordinates": [ -4.0838802, 5.3416776 ] } },
{ "type": "Feature", "properties": { "id": "node/8560869576", "addr:city": null, "name": "Supermarché de la Rivera 2", "operator": "Supermarché" }, "geometry": { "type": "Point", "coordinates": [ -3.9766077, 5.352907 ] } },
{ "type": "Feature", "properties": { "id": "node/8563789420", "addr:city": null, "name": "Supermarché", "operator": "Supermarché" }, "geometry": { "type": "Point", "coordinates": [ -3.9796745, 5.3670669 ] } },
{ "type": "Feature", "properties": { "id": "node/8568951387", "addr:city": "macorry", "name": "Cash Ivoire", "operator": "Cash ivoire" }, "geometry": { "type": "Point", "coordinates": [ -3.9912872, 5.385238 ] } },
{ "type": "Feature", "properties": { "id": "node/8576250121", "addr:city": null, "name": "Le Bonheur", "operator": "Le Bonheur" }, "geometry": { "type": "Point", "coordinates": [ -3.9822469, 5.4134974 ] } },
{ "type": "Feature", "properties": { "id": "node/8577048533", "addr:city": null, "name": "Prix Chocs Anador", "operator": "Prix Chocs Anador" }, "geometry": { "type": "Point", "coordinates": [ -4.0098636, 5.4106128 ] } },
{ "type": "Feature", "properties": { "id": "node/8583925778", "addr:city": null, "name": "Citydia", "operator": "Citydia" }, "geometry": { "type": "Point", "coordinates": [ -3.9580243, 5.3719122 ] } },
{ "type": "Feature", "properties": { "id": "node/8583925846", "addr:city": null, "name": "Dove", "operator": "Dove" }, "geometry": { "type": "Point", "coordinates": [ -3.9619101, 5.4022869 ] } },
{ "type": "Feature", "properties": { "id": "node/8583931415", "addr:city": "cocody", "name": "King Cash", "operator": "King Cash" }, "geometry": { "type": "Point", "coordinates": [ -4.0128487, 5.4386247 ] } },
{ "type": "Feature", "properties": { "id": "node/8584375848", "addr:city": "Yopougon", "name": "Cash Ivoire U", "operator": "Cash Ivoire U" }, "geometry": { "type": "Point", "coordinates": [ -4.0003011, 5.336836 ] } },
{ "type": "Feature", "properties": { "id": "node/8584375853", "addr:city": null, "name": "Auchan", "operator": "Auchan" }, "geometry": { "type": "Point", "coordinates": [ -3.9562886, 5.330352 ] } },
{ "type": "Feature", "properties": { "id": "node/8584375854", "addr:city": null, "name": "Supermarché", "operator": "Supermarché" }, "geometry": { "type": "Point", "coordinates": [ -3.9470363, 5.3281558 ] } },
{ "type": "Feature", "properties": { "id": "node/8584450368", "addr:city": null, "name": "Supermarché Sococe Abobo Samake", "operator": "Supermarché" }, "geometry": { "type": "Point", "coordinates": [ -4.0065322, 5.415352 ] } },
{ "type": "Feature", "properties": { "id": "node/8584450594", "addr:city": null, "name": "Supermarché", "operator": "Supermarché" }, "geometry": { "type": "Point", "coordinates": [ -4.0128476, 5.4225515 ] } },
{ "type": "Feature", "properties": { "id": "node/8584452387", "addr:city": null, "name": "Supermarché Du Bonheur", "operator": "Supermarché" }, "geometry": { "type": "Point", "coordinates": [ -3.9902983, 5.4058065 ] } },
{ "type": "Feature", "properties": { "id": "node/8584458238", "addr:city": null, "name": "Supermarché Ecoprice", "operator": "Supermarché" }, "geometry": { "type": "Point", "coordinates": [ -3.9775048, 5.3554119 ] } },
{ "type": "Feature", "properties": { "id": "node/8584560438", "addr:city": null, "name": "Supermarché Eburnie Shopping", "operator": "Supermarché" }, "geometry": { "type": "Point", "coordinates": [ -4.020189, 5.4379572 ] } },
{ "type": "Feature", "properties": { "id": "node/8586918022", "addr:city": "Yopougon", "name": "Bon prix", "operator": "Prosuma" }, "geometry": { "type": "Point", "coordinates": [ -4.0018371, 5.3236216 ] } },
{ "type": "Feature", "properties": { "id": "node/8586931774", "addr:city": null, "name": null, "operator": null }, "geometry": { "type": "Point", "coordinates": [ -3.9943733, 5.412158 ] } },
{ "type": "Feature", "properties": { "id": "node/8586959861", "addr:city": null, "name": "SOCOCE", "operator": "SOCOCE" }, "geometry": { "type": "Point", "coordinates": [ -4.0128886, 5.4525907 ] } },
{ "type": "Feature", "properties": { "id": "node/8587044406", "addr:city": null, "name": null, "operator": null }, "geometry": { "type": "Point", "coordinates": [ -3.9619427, 5.3598111 ] } },
{ "type": "Feature", "properties": { "id": "node/8587072091", "addr:city": null, "name": "Cash Express", "operator": "Cash Express" }, "geometry": { "type": "Point", "coordinates": [ -3.9373974, 5.3662746 ] } },
{ "type": "Feature", "properties": { "id": "node/8587115241", "addr:city": null, "name": "L'Abidjanaise", "operator": "L'Abidjanaise" }, "geometry": { "type": "Point", "coordinates": [ -3.9370496, 5.3628668 ] } },
{ "type": "Feature", "properties": { "id": "node/8596268693", "addr:city": "macorry", "name": "Cash Ivoire", "operator": "Cash Ivoire" }, "geometry": { "type": "Point", "coordinates": [ -3.9701628, 5.3743742 ] } },
{ "type": "Feature", "properties": { "id": "node/8596285776", "addr:city": "Abobo", "name": "King Cash", "operator": "King Cash" }, "geometry": { "type": "Point", "coordinates": [ -3.980611, 5.4030148 ] } },
{ "type": "Feature", "properties": { "id": "node/8596286600", "addr:city": null, "name": "Supermarché C G", "operator": "Supermarché" }, "geometry": { "type": "Point", "coordinates": [ -3.9691201, 5.3651841 ] } },
{ "type": "Feature", "properties": { "id": "node/8596291286", "addr:city": null, "name": "Supermarché", "operator": "Supermarché" }, "geometry": { "type": "Point", "coordinates": [ -4.006137, 5.4156669 ] } },
{ "type": "Feature", "properties": { "id": "node/8622092229", "addr:city": null, "name": "Supermarché", "operator": "Supermarché" }, "geometry": { "type": "Point", "coordinates": [ -4.0148558, 5.4237717 ] } },
{ "type": "Feature", "properties": { "id": "node/8691885708", "addr:city": null, "name": "sococe côte d'Ivoire", "operator": "sococe" }, "geometry": { "type": "Point", "coordinates": [ -3.9674012, 5.2959213 ] } },
{ "type": "Feature", "properties": { "id": "node/8735262552", "addr:city": null, "name": null, "operator": null }, "geometry": { "type": "Point", "coordinates": [ -4.0679602, 5.3404464 ] } },
{ "type": "Feature", "properties": { "id": "node/8832621768", "addr:city": null, "name": "Super Marché Vitryn", "operator": "Super Marché " }, "geometry": { "type": "Point", "coordinates": [ -3.9354095, 5.330883 ] } },
{ "type": "Feature", "properties": { "id": "node/8832680196", "addr:city": null, "name": "Supermarché de la Paix", "operator": "Supermarché" }, "geometry": { "type": "Point", "coordinates": [ -4.0141212, 5.4479597 ] } },
{ "type": "Feature", "properties": { "id": "node/8832680218", "addr:city": null, "name": "Petit prix supermarché", "operator": "Supermarché" }, "geometry": { "type": "Point", "coordinates": [ -4.0206919, 5.4429251 ] } },
{ "type": "Feature", "properties": { "id": "node/8836601778", "addr:city": null, "name": "Supermarché Continental", "operator": "Supermarché" }, "geometry": { "type": "Point", "coordinates": [ -3.985249, 5.4100588 ] } },
{ "type": "Feature", "properties": { "id": "node/8836731174", "addr:city": null, "name": "Chic Market, vente de produits Bio", "operator": "Chic Market, vente de produits Bio" }, "geometry": { "type": "Point", "coordinates": [ -3.9910967, 5.4166551 ] } },
{ "type": "Feature", "properties": { "id": "node/8837124467", "addr:city": null, "name": "cdci", "operator": "cdci" }, "geometry": { "type": "Point", "coordinates": [ -3.967309, 5.3770708 ] } },
{ "type": "Feature", "properties": { "id": "node/8838500280", "addr:city": "yopougon", "name": "King Cash", "operator": "King Cash" }, "geometry": { "type": "Point", "coordinates": [ -3.9910492, 5.404052 ] } },
{ "type": "Feature", "properties": { "id": "node/8841921623", "addr:city": null, "name": "Supermarché BONPLAN", "operator": "Supermarché" }, "geometry": { "type": "Point", "coordinates": [ -3.9888601, 5.4332102 ] } },
{ "type": "Feature", "properties": { "id": "node/8842200154", "addr:city": null, "name": "American store", "operator": "American store" }, "geometry": { "type": "Point", "coordinates": [ -3.9548729, 5.350991 ] } },
{ "type": "Feature", "properties": { "id": "node/8842843290", "addr:city": null, "name": "Supermarché BONUS", "operator": "Supermarché" }, "geometry": { "type": "Point", "coordinates": [ -3.9599799, 5.3669672 ] } },
{ "type": "Feature", "properties": { "id": "node/8843066196", "addr:city": null, "name": "Supermarché CASH-HINO", "operator": "Supermarché" }, "geometry": { "type": "Point", "coordinates": [ -3.9548662, 5.3765567 ] } },
{ "type": "Feature", "properties": { "id": "node/8843415699", "addr:city": null, "name": "Supermarché CITYDIA", "operator": "Supermarché" }, "geometry": { "type": "Point", "coordinates": [ -3.9578187, 5.3717907 ] } },
{ "type": "Feature", "properties": { "id": "node/8846760511", "addr:city": null, "name": "Supermarché interprix", "operator": "Supermarché" }, "geometry": { "type": "Point", "coordinates": [ -3.9598749, 5.36354 ] } },
{ "type": "Feature", "properties": { "id": "node/8846760621", "addr:city": "yopougon", "name": "Supermarché bon prix", "operator": "Supermarché" }, "geometry": { "type": "Point", "coordinates": [ -3.9367101, 5.3627706 ] } },
{ "type": "Feature", "properties": { "id": "node/8918383618", "addr:city": null, "name": "Super marché BONUS", "operator": "Supermarché" }, "geometry": { "type": "Point", "coordinates": [ -4.0062064, 5.4101515 ] } },
{ "type": "Feature", "properties": { "id": "node/8983153178", "addr:city": null, "name": "Mina Center", "operator": "Mina Center" }, "geometry": { "type": "Point", "coordinates": [ -3.986472, 5.3923653 ] } },
{ "type": "Feature", "properties": { "id": "node/9285849959", "addr:city": "koumassi", "name": "Cash Ivoire", "operator": "Cash ivoire" }, "geometry": { "type": "Point", "coordinates": [ -3.956741, 5.3986323 ] } },
{ "type": "Feature", "properties": { "id": "node/9306967843", "addr:city": null, "name": "Petite monnaie", "operator": "Petite monnaie" }, "geometry": { "type": "Point", "coordinates": [ -4.0963607, 5.3188149 ] } },
{ "type": "Feature", "properties": { "id": "node/9599271287", "addr:city": null, "name": "Casino", "operator": "Casino" }, "geometry": { "type": "Point", "coordinates": [ -3.9423884, 5.3330379 ] } },
{ "type": "Feature", "properties": { "id": "node/9748736781", "addr:city": "macorry", "name": "Bonprix", "operator": "Prosuma" }, "geometry": { "type": "Point", "coordinates": [ -4.034294, 5.3505904 ] } },
{ "type": "Feature", "properties": { "id": "node/9910024737", "addr:city": null, "name": "Le dépanneur", "operator": "Le dépanneur" }, "geometry": { "type": "Point", "coordinates": [ -3.9760953, 5.4034772 ] } },
{ "type": "Feature", "properties": { "id": "node/9910059296", "addr:city": null, "name": "Éléphant blanc", "operator": "Éléphant blanc" }, "geometry": { "type": "Point", "coordinates": [ -3.9791406, 5.403184 ] } },
{ "type": "Feature", "properties": { "id": "node/9915278117", "addr:city": null, "name": "marché d'Abraham", "operator": "marché d'Abraham" }, "geometry": { "type": "Point", "coordinates": [ -3.8858288, 5.2417101 ] } },
{ "type": "Feature", "properties": { "id": "node/9917083417", "addr:city": null, "name": "PDZ MAR 133", "operator": "PDZ MAR 133" }, "geometry": { "type": "Point", "coordinates": [ -3.9685665, 5.2753046 ] } },
{ "type": "Feature", "properties": { "id": "node/9952748121", "addr:city": null, "name": "Coco Market", "operator": "Coco Market" }, "geometry": { "type": "Point", "coordinates": [ -4.0909652, 5.3289373 ] } },
{ "type": "Feature", "properties": { "id": "node/10225224181", "addr:city": null, "name": "Auchan", "operator": "Auchan" }, "geometry": { "type": "Point", "coordinates": [ -4.0592673, 5.3409162 ] } },
{ "type": "Feature", "properties": { "id": "node/10235233717", "addr:city": "Yopougon", "name": "Supermarché BONPRIX", "operator": "Supermarché" }, "geometry": { "type": "Point", "coordinates": [ -4.0892607, 5.3355417 ] } },
{ "type": "Feature", "properties": { "id": "node/10259238528", "addr:city": "Yopougon", "name": "SANgel Yopougon", "operator": "SANgel " }, "geometry": { "type": "Point", "coordinates": [ -4.0659704, 5.3572756 ] } },
{ "type": "Feature", "properties": { "id": "node/10601652606", "addr:city": null, "name": "Auchan", "operator": "Auchan" }, "geometry": { "type": "Point", "coordinates": [ -3.9731244, 5.2872929 ] } },
{ "type": "Feature", "properties": { "id": "node/10856866246", "addr:city": "Abidjan", "name": "Auchan", "operator": "Auchan" }, "geometry": { "type": "Point", "coordinates": [ -3.9788082, 5.3621808 ] } },
{ "type": "Feature", "properties": { "id": "node/10857010262", "addr:city": "Abidjan", "name": "SOCOCE Attoban", "operator": "SOCOCE " }, "geometry": { "type": "Point", "coordinates": [ -3.9794683, 5.3668213 ] } },
{ "type": "Feature", "properties": { "id": "node/10860850996", "addr:city": null, "name": "Lescal Market", "operator": "Lescal Market" }, "geometry": { "type": "Point", "coordinates": [ -3.925755, 5.3891243 ] } },
{ "type": "Feature", "properties": { "id": "node/11097058005", "addr:city": null, "name": "COCO MARKET ANANI", "operator": "COCO MARKET" }, "geometry": { "type": "Point", "coordinates": [ -3.8733864, 5.2377702 ] } },
{ "type": "Feature", "properties": { "id": "node/11183402278", "addr:city": null, "name": "Sococe", "operator": "Sococe" }, "geometry": { "type": "Point", "coordinates": [ -4.0528837, 5.5036396 ] } },
{ "type": "Feature", "properties": { "id": "node/11195624102", "addr:city": "cocody", "name": "Bon Prix", "operator": "Prosuma" }, "geometry": { "type": "Point", "coordinates": [ -4.0511559, 5.4979221 ] } },
{ "type": "Feature", "properties": { "id": "node/11195813836", "addr:city": "yopougon", "name": "King Cash", "operator": "King Cash" }, "geometry": { "type": "Point", "coordinates": [ -4.0049946, 5.4105125 ] } },
{ "type": "Feature", "properties": { "id": "node/11195832440", "addr:city": null, "name": "Supeco", "operator": "Supeco" }, "geometry": { "type": "Point", "coordinates": [ -3.9980507, 5.4113478 ] } },
{ "type": "Feature", "properties": { "id": "node/11208009375", "addr:city": null, "name": "Super Prix", "operator": "Super Prix" }, "geometry": { "type": "Point", "coordinates": [ -4.0065965, 5.3682999 ] } },
{ "type": "Feature", "properties": { "id": "node/11217416420", "addr:city": null, "name": "Super Tai", "operator": "Super Tai" }, "geometry": { "type": "Point", "coordinates": [ -3.9879808, 5.3828365 ] } },
{ "type": "Feature", "properties": { "id": "node/11243431651", "addr:city": null, "name": "Supermarché 21em", "operator": "Supermarché" }, "geometry": { "type": "Point", "coordinates": [ -4.0238128, 5.4202536 ] } },
{ "type": "Feature", "properties": { "id": "node/11262735970", "addr:city": "Yopougon", "name": "Bon prix", "operator": "Prosuma" }, "geometry": { "type": "Point", "coordinates": [ -3.9711607, 5.3943438 ] } },
{ "type": "Feature", "properties": { "id": "node/11267076420", "addr:city": null, "name": "Didy Shop", "operator": "Didy Shop" }, "geometry": { "type": "Point", "coordinates": [ -4.0689493, 5.4429714 ] } },
{ "type": "Feature", "properties": { "id": "node/11401135858", "addr:city": null, "name": "Auchan", "operator": "Auchan" }, "geometry": { "type": "Point", "coordinates": [ -3.9915928, 5.3908035 ] } },
{ "type": "Feature", "properties": { "id": "node/11497695110", "addr:city": "Koumassi", "name": "My Auchan Koumassi", "operator": "Auchan" }, "geometry": { "type": "Point", "coordinates": [ -3.9700058, 5.293107 ] } },
{ "type": "Feature", "properties": { "id": "node/11497695112", "addr:city": "cocody", "name": "My Auchan", "operator": "Auchan" }, "geometry": { "type": "Point", "coordinates": [ -3.9571023, 5.298555 ] } },
{ "type": "Feature", "properties": { "id": "node/11584968334", "addr:city": null, "name": "A3M-CI", "operator": "A3M-CI" }, "geometry": { "type": "Point", "coordinates": [ -3.9139829, 5.3874992 ] } },
{ "type": "Feature", "properties": { "id": "node/11686368765", "addr:city": "Yopougon", "name": "Bonprix", "operator": "Prosuma" }, "geometry": { "type": "Point", "coordinates": [ -3.8755296, 5.3506106 ] } },
{ "type": "Feature", "properties": { "id": "node/11686368766", "addr:city": "macorry", "name": "Auchan", "operator": "Auchan" }, "geometry": { "type": "Point", "coordinates": [ -3.8758592, 5.3515572 ] } },
{ "type": "Feature", "properties": { "id": "node/11764379470", "addr:city": "cocody", "name": "CARTE SD Adjamé", "operator": "CARTE SD Adjamé" }, "geometry": { "type": "Point", "coordinates": [ -4.0240726, 5.3538191 ] } },
{ "type": "Feature", "properties": { "id": "node/11793790569", "addr:city": null, "name": "Supermarket Café Brazil", "operator": "Supermarket Café Brazil" }, "geometry": { "type": "Point", "coordinates": [ -3.9742609, 5.285078 ] } },
{ "type": "Feature", "properties": { "id": "node/11818396370", "addr:city": "cocody", "name": "La supérette", "operator": "La supérette" }, "geometry": { "type": "Point", "coordinates": [ -3.9726392, 5.2783097 ] } },
{ "type": "Feature", "properties": { "id": "node/11847266134", "addr:city": "cocody", "name": "Carrefour Market", "operator": "Carrefour" }, "geometry": { "type": "Point", "coordinates": [ -3.9562075, 5.399535 ] } },
{ "type": "Feature", "properties": { "id": "node/11928158382", "addr:city": "cocody", "name": "Mini Market Chez Paco", "operator": "Mini Market " }, "geometry": { "type": "Point", "coordinates": [ -4.0113529, 5.3442782 ] } },
{ "type": "Feature", "properties": { "id": "node/12040301845", "addr:city": "cocody", "name": "Supermarché Chinoise", "operator": "Supermarché" }, "geometry": { "type": "Point", "coordinates": [ -3.9904004, 5.3553284 ] } },
{ "type": "Feature", "properties": { "id": "node/12048430556", "addr:city": "cocody", "name": "Supermarché Chinoise", "operator": "Supermarché" }, "geometry": { "type": "Point", "coordinates": [ -3.9900483, 5.3689612 ] } },
{ "type": "Feature", "properties": { "id": "node/12455939401", "addr:city": null, "name": "marché de vente de machine", "operator": "marché de vente de machine" }, "geometry": { "type": "Point", "coordinates": [ -3.9697684, 5.2954897 ] } }
]
}
